{
  "type": "FeatureCollection",
  "features": [
    {
      "type": "Feature",
      "properties": {
        "norad_id": 47062,
        "name": "COSMOS 2251 DEB",
        "group": "cosmos-2251-debris",
        "lat": -32.38658202571643,
        "lon": 63.220231820976146,
        "alt_km": 1137.8867390286805,
        "timestamp": "2025-12-15T11:38:37.550712+00:00",
        "meta_object_name": "COSMOS 2251 DEB",
        "meta_object_id": "1993-036BXS",
        "meta_epoch": "2025-12-13T23:56:30.676992",
        "meta_mean_motion": 13.71952164,
        "meta_eccentricity": 0.03233862,
        "meta_inclination": 74.0831,
        "meta_ra_of_asc_node": 76.1003,
        "meta_arg_of_pericenter": 201.6929,
        "meta_mean_anomaly": 337.1469,
        "meta_ephemeris_type": 0,
        "meta_classification_type": "U",
        "meta_norad_cat_id": 47062,
        "meta_element_set_no": 999,
        "meta_rev_at_epoch": 55619,
        "meta_bstar": 0.0017198262,
        "meta_mean_motion_dot": 2.244e-05,
        "meta_mean_motion_ddot": 0,
        "tle_line1": "1 47062U 93036BXS 25347.99757728  .00002244  00000+0  17198-2 0  9994",
        "tle_line2": "2 47062  74.0831  76.1003 0323386 201.6929 337.1469 13.71952164556193"
      },
      "geometry": {
        "type": "Point",
        "coordinates": [
          63.220231820976146,
          -32.38658202571643
        ]
      }
    },
    {
      "type": "Feature",
      "properties": {
        "norad_id": 47068,
        "name": "COSMOS 2251 DEB",
        "group": "cosmos-2251-debris",
        "lat": 15.327938750986887,
        "lon": 13.781240159652693,
        "alt_km": 722.3911858326783,
        "timestamp": "2025-12-15T11:38:37.550722+00:00",
        "meta_object_name": "COSMOS 2251 DEB",
        "meta_object_id": "1993-036BXY",
        "meta_epoch": "2025-12-13T20:53:19.472064",
        "meta_mean_motion": 14.53162773,
        "meta_eccentricity": 0.00183454,
        "meta_inclination": 74.024,
        "meta_ra_of_asc_node": 201.3336,
        "meta_arg_of_pericenter": 288.2568,
        "meta_mean_anomaly": 71.6597,
        "meta_ephemeris_type": 0,
        "meta_classification_type": "U",
        "meta_norad_cat_id": 47068,
        "meta_element_set_no": 999,
        "meta_rev_at_epoch": 61773,
        "meta_bstar": 0.0010277009,
        "meta_mean_motion_dot": 4.239e-05,
        "meta_mean_motion_ddot": 0,
        "tle_line1": "1 47068U 93036BXY 25347.87036426  .00004239  00000+0  10277-2 0  9999",
        "tle_line2": "2 47068  74.0240 201.3336 0018345 288.2568  71.6597 14.53162773617730"
      },
      "geometry": {
        "type": "Point",
        "coordinates": [
          13.781240159652693,
          15.327938750986887
        ]
      }
    },
    {
      "type": "Feature",
      "properties": {
        "norad_id": 47073,
        "name": "COSMOS 2251 DEB",
        "group": "cosmos-2251-debris",
        "lat": -28.026462404035613,
        "lon": 25.806533870853464,
        "alt_km": 776.3805053607384,
        "timestamp": "2025-12-15T11:38:37.550732+00:00",
        "meta_object_name": "COSMOS 2251 DEB",
        "meta_object_id": "1993-036BYD",
        "meta_epoch": "2025-12-10T22:57:37.610784",
        "meta_mean_motion": 14.04716581,
        "meta_eccentricity": 0.0162103,
        "meta_inclination": 74.0823,
        "meta_ra_of_asc_node": 204.9451,
        "meta_arg_of_pericenter": 243.6176,
        "meta_mean_anomaly": 114.8243,
        "meta_ephemeris_type": 0,
        "meta_classification_type": "U",
        "meta_norad_cat_id": 47073,
        "meta_element_set_no": 999,
        "meta_rev_at_epoch": 60336,
        "meta_bstar": 0.00063847,
        "meta_mean_motion_dot": 1.125e-05,
        "meta_mean_motion_ddot": 0,
        "tle_line1": "1 47073U 93036BYD 25344.95668531  .00001125  00000+0  63847-3 0  9992",
        "tle_line2": "2 47073  74.0823 204.9451 0162103 243.6176 114.8243 14.04716581603362"
      },
      "geometry": {
        "type": "Point",
        "coordinates": [
          25.806533870853464,
          -28.026462404035613
        ]
      }
    },
    {
      "type": "Feature",
      "properties": {
        "norad_id": 47074,
        "name": "COSMOS 2251 DEB",
        "group": "cosmos-2251-debris",
        "lat": -50.27056565642011,
        "lon": -76.37803110441162,
        "alt_km": 685.0371073990891,
        "timestamp": "2025-12-15T11:38:37.550742+00:00",
        "meta_object_name": "COSMOS 2251 DEB",
        "meta_object_id": "1993-036BYE",
        "meta_epoch": "2025-12-14T04:11:13.221312",
        "meta_mean_motion": 14.35642167,
        "meta_eccentricity": 0.01443955,
        "meta_inclination": 74.0928,
        "meta_ra_of_asc_node": 306.0867,
        "meta_arg_of_pericenter": 333.9611,
        "meta_mean_anomaly": 42.2812,
        "meta_ephemeris_type": 0,
        "meta_classification_type": "U",
        "meta_norad_cat_id": 47074,
        "meta_element_set_no": 999,
        "meta_rev_at_epoch": 2703,
        "meta_bstar": 0.001977061,
        "meta_mean_motion_dot": 6.399e-05,
        "meta_mean_motion_ddot": 0,
        "tle_line1": "1 47074U 93036BYE 25348.17445858  .00006399  00000+0  19771-2 0  9990",
        "tle_line2": "2 47074  74.0928 306.0867 0144395 333.9611  42.2812 14.35642167 27036"
      },
      "geometry": {
        "type": "Point",
        "coordinates": [
          -76.37803110441162,
          -50.27056565642011
        ]
      }
    },
    {
      "type": "Feature",
      "properties": {
        "norad_id": 47116,
        "name": "COSMOS 2251 DEB",
        "group": "cosmos-2251-debris",
        "lat": 50.70598416817375,
        "lon": -104.35385782182351,
        "alt_km": 565.778513144609,
        "timestamp": "2025-12-15T11:38:37.550758+00:00",
        "meta_object_name": "COSMOS 2251 DEB",
        "meta_object_id": "1993-036BYJ",
        "meta_epoch": "2025-12-11T00:06:23.501088",
        "meta_mean_motion": 14.98044349,
        "meta_eccentricity": 0.00215318,
        "meta_inclination": 74.0231,
        "meta_ra_of_asc_node": 244.2359,
        "meta_arg_of_pericenter": 338.282,
        "meta_mean_anomaly": 38.4094,
        "meta_ephemeris_type": 0,
        "meta_classification_type": "U",
        "meta_norad_cat_id": 47116,
        "meta_element_set_no": 999,
        "meta_rev_at_epoch": 59485,
        "meta_bstar": 0.0031113289,
        "meta_mean_motion_dot": 0.0003712,
        "meta_mean_motion_ddot": 0,
        "tle_line1": "1 47116U 93036BYJ 25345.00443867  .00037120  00000+0  31113-2 0  9994",
        "tle_line2": "2 47116  74.0231 244.2359 0021531 338.2820  38.4094 14.98044349594850"
      },
      "geometry": {
        "type": "Point",
        "coordinates": [
          -104.35385782182351,
          50.70598416817375
        ]
      }
    },
    {
      "type": "Feature",
      "properties": {
        "norad_id": 53093,
        "name": "COSMOS 2251 DEB",
        "group": "cosmos-2251-debris",
        "lat": 39.38261200266116,
        "lon": -50.042950306100494,
        "alt_km": 736.7156952201667,
        "timestamp": "2025-12-15T11:38:37.550769+00:00",
        "meta_object_name": "COSMOS 2251 DEB",
        "meta_object_id": "1993-036BYP",
        "meta_epoch": "2025-12-14T22:07:56.813376",
        "meta_mean_motion": 14.41894432,
        "meta_eccentricity": 0.00193605,
        "meta_inclination": 74.0364,
        "meta_ra_of_asc_node": 297.4097,
        "meta_arg_of_pericenter": 14.1778,
        "meta_mean_anomaly": 345.9917,
        "meta_ephemeris_type": 0,
        "meta_classification_type": "U",
        "meta_norad_cat_id": 53093,
        "meta_element_set_no": 999,
        "meta_rev_at_epoch": 17757,
        "meta_bstar": 0.00068352704,
        "meta_mean_motion_dot": 2.217e-05,
        "meta_mean_motion_ddot": 0,
        "tle_line1": "1 53093U 93036BYP 25348.92218534  .00002217  00000+0  68353-3 0  9996",
        "tle_line2": "2 53093  74.0364 297.4097 0019360  14.1778 345.9917 14.41894432177576"
      },
      "geometry": {
        "type": "Point",
        "coordinates": [
          -50.042950306100494,
          39.38261200266116
        ]
      }
    }
  ]
}